{
  "type": "FeatureCollection",
  "features": [
    {
      "type": "Feature",
      "properties": {
        "norad_id": 40376,
        "name": "SMAP",
        "group": "resource",
        "lat": -36.46356459245856,
        "lon": 7.845781364368595,
        "alt_km": 689.2242359429283,
        "timestamp": "2025-12-23T05:02:11.680765+00:00",
        "meta_object_name": "SMAP",
        "meta_object_id": "2015-003A",
        "meta_epoch": "2025-12-22T22:38:26.475072",
        "meta_mean_motion": 14.63357209,
        "meta_eccentricity": 0.00012267,
        "meta_inclination": 98.1289,
        "meta_ra_of_asc_node": 1.5201,
        "meta_arg_of_pericenter": 91.869,
        "meta_mean_anomaly": 268.2652,
        "meta_ephemeris_type": 0,
        "meta_classification_type": "U",
        "meta_norad_cat_id": 40376,
        "meta_element_set_no": 999,
        "meta_rev_at_epoch": 58184,
        "meta_bstar": 0.00010787249,
        "meta_mean_motion_dot": 5.1e-06,
        "meta_mean_motion_ddot": 0,
        "tle_line1": "1 40376U 15003A   25356.94336198  .00000510  00000+0  10787-3 0  9994",
        "tle_line2": "2 40376  98.1289   1.5201 0001226  91.8690 268.2652 14.63357209581849"
      },
      "geometry": {
        "type": "Point",
        "coordinates": [
          7.845781364368595,
          -36.46356459245856
        ]
      }
    },
    {
      "type": "Feature",
      "properties": {
        "norad_id": 40536,
        "name": "KOMPSAT-3A",
        "group": "resource",
        "lat": 4.885555413783028,
        "lon": 152.798323953658,
        "alt_km": 434.65276898104,
        "timestamp": "2025-12-23T05:02:11.680776+00:00",
        "meta_object_name": "KOMPSAT-3A",
        "meta_object_id": "2015-014A",
        "meta_epoch": "2025-12-22T22:03:41.425344",
        "meta_mean_motion": 15.44300543,
        "meta_eccentricity": 0.0005575,
        "meta_inclination": 97.68,
        "meta_ra_of_asc_node": 331.8305,
        "meta_arg_of_pericenter": 104.3991,
        "meta_mean_anomaly": 255.7875,
        "meta_ephemeris_type": 0,
        "meta_classification_type": "U",
        "meta_norad_cat_id": 40536,
        "meta_element_set_no": 999,
        "meta_rev_at_epoch": 59452,
        "meta_bstar": 0.00043493293,
        "meta_mean_motion_dot": 0.00019967,
        "meta_mean_motion_ddot": 0,
        "tle_line1": "1 40536U 15014A   25356.91922946  .00019967  00000+0  43493-3 0  9999",
        "tle_line2": "2 40536  97.6800 331.8305 0005575 104.3991 255.7875 15.44300543594525"
      },
      "geometry": {
        "type": "Point",
        "coordinates": [
          152.798323953658,
          4.885555413783028
        ]
      }
    },
    {
      "type": "Feature",
      "properties": {
        "norad_id": 40697,
        "name": "SENTINEL-2A",
        "group": "resource",
        "lat": 46.33110686992352,
        "lon": 60.50254865772451,
        "alt_km": 784.3626406361373,
        "timestamp": "2025-12-23T05:02:11.680786+00:00",
        "meta_object_name": "SENTINEL-2A",
        "meta_object_id": "2015-028A",
        "meta_epoch": "2025-12-22T23:46:57.432864",
        "meta_mean_motion": 14.30808368,
        "meta_eccentricity": 0.00010699,
        "meta_inclination": 98.5737,
        "meta_ra_of_asc_node": 69.3799,
        "meta_arg_of_pericenter": 87.9965,
        "meta_mean_anomaly": 272.134,
        "meta_ephemeris_type": 0,
        "meta_classification_type": "U",
        "meta_norad_cat_id": 40697,
        "meta_element_set_no": 999,
        "meta_rev_at_epoch": 54853,
        "meta_bstar": -1.5809092e-05,
        "meta_mean_motion_dot": -8.5e-07,
        "meta_mean_motion_ddot": 0,
        "tle_line1": "1 40697U 15028A   25356.99094251 -.00000085  00000+0 -15809-4 0  9993",
        "tle_line2": "2 40697  98.5737  69.3799 0001069  87.9965 272.1340 14.30808368548535"
      },
      "geometry": {
        "type": "Point",
        "coordinates": [
          60.50254865772451,
          46.33110686992352
        ]
      }
    },
    {
      "type": "Feature",
      "properties": {
        "norad_id": 40701,
        "name": "GAOFEN-8",
        "group": "resource",
        "lat": -14.816071963732035,
        "lon": -6.185939387234916,
        "alt_km": 454.5366213892994,
        "timestamp": "2025-12-23T05:02:11.680796+00:00",
        "meta_object_name": "GAOFEN-8",
        "meta_object_id": "2015-030A",
        "meta_epoch": "2025-12-22T09:28:00.859296",
        "meta_mean_motion": 15.38873493,
        "meta_eccentricity": 0.00117643,
        "meta_inclination": 97.6904,
        "meta_ra_of_asc_node": 175.0072,
        "meta_arg_of_pericenter": 104.66,
        "meta_mean_anomaly": 255.595,
        "meta_ephemeris_type": 0,
        "meta_classification_type": "U",
        "meta_norad_cat_id": 40701,
        "meta_element_set_no": 999,
        "meta_rev_at_epoch": 58419,
        "meta_bstar": 0.00072175287,
        "meta_mean_motion_dot": 0.00027798,
        "meta_mean_motion_ddot": 0,
        "tle_line1": "1 40701U 15030A   25356.39445439  .00027798  00000+0  72175-3 0  9990",
        "tle_line2": "2 40701  97.6904 175.0072 0011764 104.6600 255.5950 15.38873493584196"
      },
      "geometry": {
        "type": "Point",
        "coordinates": [
          -6.185939387234916,
          -14.816071963732035
        ]
      }
    },
    {
      "type": "Feature",
      "properties": {
        "norad_id": 40718,
        "name": "CARBONITE 1 (CBNT-1)",
        "group": "resource",
        "lat": -0.34508779085065966,
        "lon": -2.253238598118118,
        "alt_km": 614.6618899659134,
        "timestamp": "2025-12-23T05:02:11.680806+00:00",
        "meta_object_name": "CARBONITE 1 (CBNT-1)",
        "meta_object_id": "2015-032D",
        "meta_epoch": "2025-12-22T23:22:06.454848",
        "meta_mean_motion": 14.82790671,
        "meta_eccentricity": 0.00151386,
        "meta_inclination": 97.6397,
        "meta_ra_of_asc_node": 177.5674,
        "meta_arg_of_pericenter": 148.4746,
        "meta_mean_anomaly": 211.7379,
        "meta_ephemeris_type": 0,
        "meta_classification_type": "U",
        "meta_norad_cat_id": 40718,
        "meta_element_set_no": 999,
        "meta_rev_at_epoch": 56322,
        "meta_bstar": 0.00048913343,
        "meta_mean_motion_dot": 3.913e-05,
        "meta_mean_motion_ddot": 0,
        "tle_line1": "1 40718U 15032D   25356.97368582  .00003913  00000+0  48913-3 0  9993",
        "tle_line2": "2 40718  97.6397 177.5674 0015138 148.4746 211.7379 14.82790671563225"
      },
      "geometry": {
        "type": "Point",
        "coordinates": [
          -2.253238598118118,
          -0.34508779085065966
        ]
      }
    },
    {
      "type": "Feature",
      "properties": {
        "norad_id": 40878,
        "name": "YAOGAN-27",
        "group": "resource",
        "lat": 78.71513434752205,
        "lon": -76.93003282414105,
        "alt_km": 1198.1253196451853,
        "timestamp": "2025-12-23T05:02:11.680817+00:00",
        "meta_object_name": "YAOGAN-27",
        "meta_object_id": "2015-040A",
        "meta_epoch": "2025-12-22T23:07:57.148032",
        "meta_mean_motion": 13.16060217,
        "meta_eccentricity": 0.00075707,
        "meta_inclination": 100.1009,
        "meta_ra_of_asc_node": 346.1211,
        "meta_arg_of_pericenter": 261.2016,
        "meta_mean_anomaly": 98.8241,
        "meta_ephemeris_type": 0,
        "meta_classification_type": "U",
        "meta_norad_cat_id": 40878,
        "meta_element_set_no": 999,
        "meta_rev_at_epoch": 49448,
        "meta_bstar": 8.8218967e-05,
        "meta_mean_motion_dot": -9e-08,
        "meta_mean_motion_ddot": 0,
        "tle_line1": "1 40878U 15040A   25356.96385588 -.00000009  00000+0  88219-4 0  9991",
        "tle_line2": "2 40878 100.1009 346.1211 0007570 261.2016  98.8241 13.16060217494483"
      },
      "geometry": {
        "type": "Point",
        "coordinates": [
          -76.93003282414105,
          78.71513434752205
        ]
      }
    },
    {
      "type": "Feature",
      "properties": {
        "norad_id": 40894,
        "name": "GAOFEN-9 01",
        "group": "resource",
        "lat": 82.23723352123228,
        "lon": -44.80672462818405,
        "alt_km": 613.4932470406729,
        "timestamp": "2025-12-23T05:02:11.680827+00:00",
        "meta_object_name": "GAOFEN-9 01",
        "meta_object_id": "2015-047A",
        "meta_epoch": "2025-12-22T23:46:46.174944",
        "meta_mean_motion": 14.82446538,
        "meta_eccentricity": 0.00275566,
        "meta_inclination": 97.6529,
        "meta_ra_of_asc_node": 35.503,
        "meta_arg_of_pericenter": 1.2261,
        "meta_mean_anomaly": 358.9016,
        "meta_ephemeris_type": 0,
        "meta_classification_type": "U",
        "meta_norad_cat_id": 40894,
        "meta_element_set_no": 999,
        "meta_rev_at_epoch": 55408,
        "meta_bstar": 0.00014076901,
        "meta_mean_motion_dot": 1.085e-05,
        "meta_mean_motion_ddot": 0,
        "tle_line1": "1 40894U 15047A   25356.99081221  .00001085  00000+0  14077-3 0  9990",
        "tle_line2": "2 40894  97.6529  35.5030 0027556   1.2261 358.9016 14.82446538554087"
      },
      "geometry": {
        "type": "Point",
        "coordinates": [
          -44.80672462818405,
          82.23723352123228
        ]
      }
    }
  ]
}